[{"OBJECT_NAME":"TEN-KOH","OBJECT_ID":"2018-084G","EPOCH":"2026-03-09T23:23:52.653408","MEAN_MOTION":15.02465351,"ECCENTRICITY":0.0011972,"INCLINATION":98.0798,"RA_OF_ASC_NODE":257.1735,"ARG_OF_PERICENTER":91.8355,"MEAN_ANOMALY":268.424,"EPHEMERIS_TYPE":0,"CLASSIFICATION_TYPE":"U","NORAD_CAT_ID":43677,"ELEMENT_SET_NO":999,"REV_AT_EPOCH":40126,"BSTAR":0.00025918134,"MEAN_MOTION_DOT":3.377e-5,"MEAN_MOTION_DDOT":0},{"OBJECT_NAME":"STARLINK-33967","OBJECT_ID":"2025-102F","EPOCH":"2026-03-09T13:34:48.218304","MEAN_MOTION":14.98340747,"ECCENTRICITY":0.0002934,"INCLINATION":70.0014,"RA_OF_ASC_NODE":114.7685,"ARG_OF_PERICENTER":276.8352,"MEAN_ANOMALY":83.2473,"EPHEMERIS_TYPE":0,"CLASSIFICATION_TYPE":"U","NORAD_CAT_ID":64027,"ELEMENT_SET_NO":999,"REV_AT_EPOCH":4587,"BSTAR":0.00038169,"MEAN_MOTION_DOT":4.465e-5,"MEAN_MOTION_DDOT":0}]
